BEIDOU-2 IGSO-1 (C06)   
1 36828U 10036A   25087.92097250 -.00000107  00000+0  00000+0 0  9990
2 36828  54.2665 166.9908 0046170 211.7421 242.8611  1.00248251 53760
BEIDOU-2 G4 (C04)       
1 37210U 10057A   25087.72544770 -.00000113  00000+0  00000+0 0  9998
2 37210   2.5404  70.4338 0006451 207.0518 330.0515  1.00270582 52812
BEIDOU-2 IGSO-2 (C07)   
1 37256U 10068A   25086.95322538 -.00000180  00000+0  00000+0 0  9994
2 37256  48.3560 277.3408 0039596 210.9853 147.8656  1.00261049 52313
BEIDOU-2 IGSO-3 (C08)   
1 37384U 11013A   25087.81528418 -.00000180  00000+0  00000+0 0  9998
2 37384  61.7780  44.3744 0030106 182.7439   0.7164  1.00285964 51184
BEIDOU-2 IGSO-4 (C09)   
1 37763U 11038A   25082.70190369 -.00000060  00000+0  00000+0 0  9996
2 37763  54.5715 169.7029 0137042 229.6463 126.0160  1.00250470 50121
BEIDOU-2 IGSO-5 (C10)   
1 37948U 11073A   25086.48747541 -.00000118  00000+0  00000+0 0  9993
2 37948  48.4938 277.0481 0101566 219.3452 320.2434  1.00266963 48927
BEIDOU-2 G5 (C05)       
1 38091U 12008A   25087.40863512  .00000056  00000+0  00000+0 0  9992
2 38091   2.4616  71.2351 0012413 257.7004  63.0668  1.00266375 47894
BEIDOU-2 M3 (C11)       
1 38250U 12018A   25086.44272987 -.00000034  00000+0  00000+0 0  9990
2 38250  56.1295 319.8872 0021268 273.3188  86.4970  1.86233582 87622
BEIDOU-2 M4 (C12)       
1 38251U 12018B   25086.91113890 -.00000034  00000+0  00000+0 0  9990
2 38251  56.0334 319.1214 0012294 279.6034  80.3161  1.86232018 87636
BEIDOU-2 M6 (C14)       
1 38775U 12050B   25086.08409456  .00000041  00000+0  00000+0 0  9998
2 38775  56.1517  77.7225 0014478 336.8523  23.1009  1.86230922 84988
BEIDOU-2 G6 (C02)       
1 38953U 12059A   25087.48498495 -.00000176  00000+0  00000+0 0  9991
2 38953   3.2858  78.0710 0010397 304.3551  62.3531  1.00270956 45447
BEIDOU-3S IGSO-1S (C31) 
1 40549U 15019A   25087.05947236 -.00000131  00000+0  00000+0 0  9990
2 40549  50.0382 300.8166 0037304 191.6710 166.3192  1.00294759 36596
BEIDOU-3S M2S (C58)     
1 40748U 15037A   25085.50248905 -.00000029  00000+0  00000+0 0  9992
2 40748  55.2585 317.4116 0008521 269.3841  90.5758  1.86229118 65785
BEIDOU-3S M1S (C57)     
1 40749U 15037B   25086.84099597 -.00000033  00000+0  00000+0 0  9997
2 40749  55.2537 317.3587 0004404  16.1792 343.8919  1.86253683 65814
BEIDOU-2 IGSO-6 (C13)   
1 41434U 16021A   25087.34393282 -.00000146  00000+0  00000+0 0  9992
2 41434  59.6002  42.4878 0052914 230.1901 131.5478  1.00259416 33014
BEIDOU-2 G7 (C03)       
1 41586U 16037A   25087.34740803 -.00000356  00000+0  00000+0 0  9995
2 41586   1.5664  67.7578 0010348 335.6486  18.1987  1.00273186  2418
BEIDOU-3 M1 (C19)       
1 43001U 17069A   25086.38678654  .00000040  00000+0  00000+0 0  9991
2 43001  56.3011  77.8458 0012526 306.2449  53.6565  1.86231133 50282
BEIDOU-3 M2 (C20)       
1 43002U 17069B   25085.78762896  .00000044  00000+0  00000+0 0  9991
2 43002  56.3001  77.9015 0010112 325.4670  34.4874  1.86230834 50265
BEIDOU-3 M7 (C27)       
1 43107U 18003A   25087.14503112 -.00000037  00000+0  00000+0 0  9995
2 43107  54.7154 317.8216 0004849  66.9824 293.1247  1.86232327 49040
BEIDOU-3 M8 (C28)       
1 43108U 18003B   25087.08779679 -.00000036  00000+0  00000+0 0  9991
2 43108  54.7084 317.8075 0002884 284.8448  75.1793  1.86230808 49053
BEIDOU-3 M4 (C22)       
1 43207U 18018A   25086.99190161  .00000035  00000+0  00000+0 0  9997
2 43207  56.2604  77.9052 0007214 345.3058  14.6870  1.86231010 48430
BEIDOU-3 M3 (C21)       
1 43208U 18018B   25087.59537253  .00000030  00000+0  00000+0 0  9997
2 43208  56.2605  77.8891 0010162 316.3813  43.5482  1.86231034 48442
BEIDOU-3 M9 (C29)       
1 43245U 18029A   25085.12938823 -.00000026  00000+0  00000+0 0  9991
2 43245  54.5922 315.5720 0000863   6.2905 353.7668  1.86232493 47556
BEIDOU-3 M10 (C30)      
1 43246U 18029B   25085.06047255 -.00000026  00000+0  00000+0 0  9995
2 43246  54.5896 315.6009 0004984  18.7175 341.3571  1.86228965 47536
BEIDOU-2 IGSO-7 (C16)   
1 43539U 18057A   25087.91921161 -.00000126  00000+0  00000+0 0  9995
2 43539  55.1571 166.9193 0086958 235.4243 228.1836  1.00281083 24654
BEIDOU-3 M5 (C23)       
1 43581U 18062A   25086.89673908  .00000006  00000+0  00000+0 0  9993
2 43581  54.1055 197.4783 0002556 286.8649  73.0947  1.86228461 45325
BEIDOU-3 M6 (C24)       
1 43582U 18062B   25087.29810667  .00000010  00000+0  00000+0 0  9999
2 43582  54.1050 197.4538 0005218  35.5328 324.4914  1.86229216 45337
BEIDOU-3 M12 (C26)      
1 43602U 18067A   25086.15926124  .00000002  00000+0  00000+0 0  9998
2 43602  54.1977 196.1999 0007689  33.1978 326.8381  1.86227756 44794
BEIDOU-3 M11 (C25)      
1 43603U 18067B   25085.75611696  .00000000  00000+0  00000+0 0  9997
2 43603  54.1951 196.1779 0004285  25.1171 334.8907  1.86227242 44814
BEIDOU-3 M13 (C32)      
1 43622U 18072A   25087.32651947  .00000031  00000+0  00000+0 0  9996
2 43622  56.2333  77.4169 0009063 305.3425  54.5836  1.86231126 44352
BEIDOU-3 M14 (C33)      
1 43623U 18072B   25087.19200190  .00000033  00000+0  00000+0 0  9994
2 43623  56.2350  77.4149 0006726 325.5341  34.4340  1.86231130 44345
BEIDOU-3 M16 (C35)      
1 43647U 18078A   25087.35267780 -.00000035  00000+0  00000+0 0  9995
2 43647  54.4865 315.5689 0008209  25.1149 334.9794  1.86232176 43862
BEIDOU-3 M15 (C34)      
1 43648U 18078B   25087.48191745 -.00000036  00000+0  00000+0 0  9998
2 43648  54.4821 315.5662 0005204  34.0474 326.0400  1.86232079 43888
BEIDOU-3 G1 (C59)       
1 43683U 18085A   25087.42471237 -.00000278  00000+0  00000+0 0  9994
2 43683   2.9010 100.2083 0002941 354.5022  24.3120  1.00273114 23599
BEIDOU-3 M17 (C36)      
1 43706U 18093A   25082.80347592  .00000001  00000+0  00000+0 0  9995
2 43706  54.1893 197.5765 0007439 288.2875  71.6194  1.86228360 43152
BEIDOU-3 M18 (C37)      
1 43707U 18093B   25085.88826552  .00000000  00000+0  00000+0 0  9994
2 43707  54.1897 197.4635 0006054 325.5014  34.4441  1.86229653 43208
BEIDOU-3 IGSO-1 (C38)   
1 44204U 19023A   25087.27729559 -.00000209  00000+0  00000+0 0  9997
2 44204  58.0647  42.2581 0021659 227.2656 135.6119  1.00269137  2749
BEIDOU-2 G8 (C01)       
1 44231U 19027A   25087.35418470 -.00000249  00000+0  00000+0 0  9991
2 44231   1.4858  74.6718 0005538 253.4590 129.9331  1.00270632 21613
BEIDOU-3 IGSO-2 (C39)   
1 44337U 19035A   25086.62421132 -.00000134  00000+0  00000+0 0  9998
2 44337  55.1984 162.7833 0035522 207.1284 157.1275  1.00296322 21192
BEIDOU-3 M24 (C46)      
1 44542U 19061A   25085.95884841  .00000001  00000+0  00000+0 0  9992
2 44542  54.4163 197.8117 0007731   8.5942 351.4032  1.86228924 37464
BEIDOU-3 M23 (C45)      
1 44543U 19061B   25087.72704157  .00000013  00000+0  00000+0 0  9994
2 44543  54.4149 197.7207 0004435 357.5930  20.5707  1.86229012 37495
BEIDOU-3 IGSO-3 (C40)   
1 44709U 19073A   25084.94988344 -.00000138  00000+0  00000+0 0  9993
2 44709  55.5680 285.7222 0042351 181.5772 178.4320  1.00270818 19966
BEIDOU-3 M22 (C44)      
1 44793U 19078A   25087.41300928 -.00000035  00000+0  00000+0 0  9998
2 44793  54.3335 315.4639 0007162  31.4852 328.6116  1.86231936 36355
BEIDOU-3 M21 (C43)      
1 44794U 19078B   25087.54462278 -.00000036  00000+0  00000+0 0  9991
2 44794  54.3069 315.4293 0005194  27.5713 332.5098  1.86227607 36354
BEIDOU-3 M19 (C41)      
1 44864U 19090A   25087.22320922  .00000032  00000+0  00000+0 0  9992
2 44864  56.1672  77.5760 0020141 287.6257  50.0685  1.86231392 35920
BEIDOU-3 M20 (C42)      
1 44865U 19090B   25087.39430611  .00000031  00000+0  00000+0 0  9997
2 44865  56.1688  77.6040 0017810 299.3380 242.7447  1.86231323 35915
BEIDOU-3 G2 (C60)       
1 45344U 20017A   25087.40878277 -.00000143  00000+0  00000+0 0  9992
2 45344   2.7348  38.5878 0002883 323.4106  51.2615  1.00272132 18798
BEIDOU-3 G3 (C61)       
1 45807U 20040A   25087.34740803 -.00000356  00000+0  00000+0 0  9994
2 45807   1.3714  61.8229 0002849 317.6079  42.1552  1.00274607 17594
BEIDOU-3 G4 (C62)       
1 56564U 23066A   25087.35722551 -.00000118  00000+0  00000+0 0  9994
2 56564   1.4215 290.6788 0002174 205.6052 338.3149  1.00270192  6925
BEIDOU-3 M28 (C50)      
1 58654U 23207A   25087.08832213  .00000031  00000+0  00000+0 0  9993
2 58654  55.3547  77.3990 0004982 299.2124  60.7506  1.86231943  8533
BEIDOU-3 M26 (C48)      
1 58655U 23207B   25086.35105171  .00000037  00000+0  00000+0 0  9995
2 58655  55.3561  77.4100 0005597 284.4512  75.5038  1.86231457  8505
BEIDOU-3 M25 (C47)      
1 61186U 24168B   25087.79051581 -.00000040  00000+0  00000+0 0  9994
2 61186  54.8602 317.6739 0004184 308.6898  54.5497  1.86229818  3488
BEIDOU-3 M27 (C49)      
1 61187U 24168C   25087.34807368 -.00000037  00000+0  00000+0 0  9994
2 61187  54.8561 317.6739 0002741  14.1494 187.3160  1.86230000   957
